{"type": "FeatureCollection", "features": [ {"type": "Feature", "properties": {"norad_id": 66366, "name": "STARLINK-35845", "group": "last-30-days", "lat": 21.296116081583843, "lon": -28.943739525905244, "alt_km": 394.2063683352453, "timestamp": "2025-12-04T21:36:14.650828+00:00", "meta": {"OBJECT_NAME": "STARLINK-35845", "OBJECT_ID": "2025-254U", "EPOCH": "2025-12-04T14:00:01.000224", "MEAN_MOTION": 15.58272469, "ECCENTRICITY": 0.00011127, "INCLINATION": 53.1589, "RA_OF_ASC_NODE": 315.5972, "ARG_OF_PERICENTER": 71.1616, "MEAN_ANOMALY": 338.4385, "EPHEMERIS_TYPE": 0, "CLASSIFICATION_TYPE": "U", "NORAD_CAT_ID": 66366, "ELEMENT_SET_NO": 999, "REV_AT_EPOCH": 561, "BSTAR": -0.030779584, "MEAN_MOTION_DOT": -0.02111966, "MEAN_MOTION_DDOT": 0}, "tle": {"line1": "1 66366U 25254U   25338.58334491 -.02111966  00000+0 -30780-1 0  9999", "line2": "2 66366  53.1589 315.5972 0001112  71.1616 338.4385 15.58272469  5614"}}, "geometry": {"type": "Point", "coordinates": [-28.943739525905244, 21.296116081583843]}}, {"type": "Feature", "properties": {"norad_id": 66367, "name": "STARLINK-35846", "group": "last-30-days", "lat": 24.209429224915308, "lon": -26.244820771467445, "alt_km": 393.6402951122236, "timestamp": "2025-12-04T21:36:14.650838+00:00", "meta": {"OBJECT_NAME": "STARLINK-35846", "OBJECT_ID": "2025-254V", "EPOCH": "2025-12-04T14:00:01.000224", "MEAN_MOTION": 15.5827224, "ECCENTRICITY": 0.00011797, "INCLINATION": 53.1588, "RA_OF_ASC_NODE": 315.5889, "ARG_OF_PERICENTER": 69.1704, "MEAN_ANOMALY": 344.2606, "EPHEMERIS_TYPE": 0, "CLASSIFICATION_TYPE": "U", "NORAD_CAT_ID": 66367, "ELEMENT_SET_NO": 999, "REV_AT_EPOCH": 556, "BSTAR": -0.030713685, "MEAN_MOTION_DOT": -0.02107969, "MEAN_MOTION_DDOT": 0}, "tle": {"line1": "1 66367U 25254V   25338.58334491 -.02107969  00000+0 -30714-1 0  9995", "line2": "2 66367  53.1588 315.5889 0001179  69.1704 344.2606 15.58272240  5561"}}, "geometry": {"type": "Point", "coordinates": [-26.244820771467445, 24.209429224915308]}}, {"type": "Feature", "properties": {"norad_id": 66368, "name": "STARLINK-34861", "group": "last-30-days", "lat": 17.19985596696959, "lon": 120.372635659055, "alt_km": 343.9309799393968, "timestamp": "2025-12-04T21:36:14.650848+00:00", "meta": {"OBJECT_NAME": "STARLINK-34861", "OBJECT_ID": "2025-254W", "EPOCH": "2025-12-04T10:16:14.024640", "MEAN_MOTION": 15.74306271, "ECCENTRICITY": 9.468e-05, "INCLINATION": 53.1568, "RA_OF_ASC_NODE": 316.1388, "ARG_OF_PERICENTER": 118.9457, "MEAN_ANOMALY": 241.1658, "EPHEMERIS_TYPE": 0, "CLASSIFICATION_TYPE": "U", "NORAD_CAT_ID": 66368, "ELEMENT_SET_NO": 999, "REV_AT_EPOCH": 437, "BSTAR": 0.0015340414, "MEAN_MOTION_DOT": 0.00231487, "MEAN_MOTION_DDOT": 0}, "tle": {"line1": "1 66368U 25254W   25338.42794010  .00231487  00000+0  15340-2 0  9994", "line2": "2 66368  53.1568 316.1388 0000946 118.9457 241.1658 15.74306271  4370"}}, "geometry": {"type": "Point", "coordinates": [120.372635659055, 17.19985596696959]}}, {"type": "Feature", "properties": {"norad_id": 66369, "name": "STARLINK-35795", "group": "last-30-days", "lat": 18.087389326817696, "lon": 119.6201763140841, "alt_km": 341.3231737969536, "timestamp": "2025-12-04T21:36:14.650858+00:00", "meta": {"OBJECT_NAME": "STARLINK-35795", "OBJECT_ID": "2025-254X", "EPOCH": "2025-12-04T02:39:36.815328", "MEAN_MOTION": 15.74349696, "ECCENTRICITY": 0.00030446, "INCLINATION": 53.1567, "RA_OF_ASC_NODE": 317.7168, "ARG_OF_PERICENTER": 147.1731, "MEAN_ANOMALY": 212.9479, "EPHEMERIS_TYPE": 0, "CLASSIFICATION_TYPE": "U", "NORAD_CAT_ID": 66369, "ELEMENT_SET_NO": 999, "REV_AT_EPOCH": 432, "BSTAR": 0.0021458163, "MEAN_MOTION_DOT": 0.00328479, "MEAN_MOTION_DDOT": 0}, "tle": {"line1": "1 66369U 25254X   25338.11084277  .00328479  00000+0  21458-2 0  9993", "line2": "2 66369  53.1567 317.7168 0003044 147.1731 212.9479 15.74349696  4324"}}, "geometry": {"type": "Point", "coordinates": [119.6201763140841, 18.087389326817696]}}, {"type": "Feature", "properties": {"norad_id": 66370, "name": "STARLINK-35824", "group": "last-30-days", "lat": 14.62149927572286, "lon": 122.50678837258779, "alt_km": 342.8444190182472, "timestamp": "2025-12-04T21:36:14.650871+00:00", "meta": {"OBJECT_NAME": "STARLINK-35824", "OBJECT_ID": "2025-254Y", "EPOCH": "2025-12-04T02:38:39.081120", "MEAN_MOTION": 15.74459234, "ECCENTRICITY": 3.668e-05, "INCLINATION": 53.1568, "RA_OF_ASC_NODE": 317.7129, "ARG_OF_PERICENTER": 67.6917, "MEAN_ANOMALY": 292.4142, "EPHEMERIS_TYPE": 0, "CLASSIFICATION_TYPE": "U", "NORAD_CAT_ID": 66370, "ELEMENT_SET_NO": 999, "REV_AT_EPOCH": 432, "BSTAR": 0.0031685267, "MEAN_MOTION_DOT": 0.00497732, "MEAN_MOTION_DDOT": 0}, "tle": {"line1": "1 66370U 25254Y   25338.11017455  .00497732  00000+0  31685-2 0  9991", "line2": "2 66370  53.1568 317.7129 0000366  67.6917 292.4142 15.74459234  4320"}}, "geometry": {"type": "Point", "coordinates": [122.50678837258779, 14.62149927572286]}}, {"type": "Feature", "properties": {"norad_id": 66371, "name": "STARLINK-35804", "group": "last-30-days", "lat": -7.822486546330314, "lon": 139.64672428845853, "alt_km": 305.6175875932713, "timestamp": "2025-12-04T21:36:14.650883+00:00", "meta": {"OBJECT_NAME": "STARLINK-35804", "OBJECT_ID": "2025-254Z", "EPOCH": "2025-12-04T05:40:01.916256", "MEAN_MOTION": 15.78402207, "ECCENTRICITY": 0.0022163, "INCLINATION": 53.1567, "RA_OF_ASC_NODE": 317.0759, "ARG_OF_PERICENTER": 317.8316, "MEAN_ANOMALY": 42.1, "EPHEMERIS_TYPE": 0, "CLASSIFICATION_TYPE": "U", "NORAD_CAT_ID": 66371, "ELEMENT_SET_NO": 999, "REV_AT_EPOCH": 434, "BSTAR": 0.042320577, "MEAN_MOTION_DOT": 0.0928972, "MEAN_MOTION_DDOT": 0}, "tle": {"line1": "1 66371U 25254Z   25338.23613329  .09289720  00000+0  42321-1 0  9990", "line2": "2 66371  53.1567 317.0759 0022163 317.8316  42.1000 15.78402207  4341"}}, "geometry": {"type": "Point", "coordinates": [139.64672428845853, -7.822486546330314]}}, {"type": "Feature", "properties": {"norad_id": 66372, "name": "STARLINK-35821", "group": "last-30-days", "lat": 13.86309335043928, "lon": 123.12261775966357, "alt_km": 344.12836399162006, "timestamp": "2025-12-04T21:36:14.650894+00:00", "meta": {"OBJECT_NAME": "STARLINK-35821", "OBJECT_ID": "2025-254AA", "EPOCH": "2025-12-04T10:15:15.064416", "MEAN_MOTION": 15.7441561, "ECCENTRICITY": 0.00015668, "INCLINATION": 53.1569, "RA_OF_ASC_NODE": 316.1358, "ARG_OF_PERICENTER": 64.6576, "MEAN_ANOMALY": 295.4606, "EPHEMERIS_TYPE": 0, "CLASSIFICATION_TYPE": "U", "NORAD_CAT_ID": 66372, "ELEMENT_SET_NO": 999, "REV_AT_EPOCH": 437, "BSTAR": 0.0030874961, "MEAN_MOTION_DOT": 0.00483155, "MEAN_MOTION_DDOT": 0}, "tle": {"line1": "1 66372U 25254AA  25338.42725769  .00483155  00000+0  30875-2 0  9995", "line2": "2 66372  53.1569 316.1358 0001566  64.6576 295.4606 15.74415610  4374"}}, "geometry": {"type": "Point", "coordinates": [123.12261775966357, 13.86309335043928]}}, {"type": "Feature", "properties": {"norad_id": 66373, "name": "STARLINK-35809", "group": "last-30-days", "lat": 11.342346081409403, "lon": 125.12842519259135, "alt_km": 346.6511003328342, "timestamp": "2025-12-04T21:36:14.650905+00:00", "meta": {"OBJECT_NAME": "STARLINK-35809", "OBJECT_ID": "2025-254AB", "EPOCH": "2025-12-04T13:17:08.404800", "MEAN_MOTION": 15.74247855, "ECCENTRICITY": 0.00024659, "INCLINATION": 53.1569, "RA_OF_ASC_NODE": 315.4998, "ARG_OF_PERICENTER": 35.503, "MEAN_ANOMALY": 324.6154, "EPHEMERIS_TYPE": 0, "CLASSIFICATION_TYPE": "U", "NORAD_CAT_ID": 66373, "ELEMENT_SET_NO": 999, "REV_AT_EPOCH": 439, "BSTAR": 0.0016939045, "MEAN_MOTION_DOT": 0.00255782, "MEAN_MOTION_DDOT": 0}, "tle": {"line1": "1 66373U 25254AB  25338.55356950  .00255782  00000+0  16939-2 0  9990", "line2": "2 66373  53.1569 315.4998 0002465  35.5030 324.6154 15.74247855  4397"}}, "geometry": {"type": "Point", "coordinates": [125.12842519259135, 11.342346081409403]}}, {"type": "Feature", "properties": {"norad_id": 66374, "name": "STARLINK-35831", "group": "last-30-days", "lat": 9.66286116390266, "lon": 126.439223854289, "alt_km": 345.37685146836156, "timestamp": "2025-12-04T21:36:14.650915+00:00", "meta": {"OBJECT_NAME": "STARLINK-35831", "OBJECT_ID": "2025-254AC", "EPOCH": "2025-12-04T11:45:13.351968", "MEAN_MOTION": 15.74328879, "ECCENTRICITY": 9.308e-05, "INCLINATION": 53.1571, "RA_OF_ASC_NODE": 315.8123, "ARG_OF_PERICENTER": 87.3429, "MEAN_ANOMALY": 272.7697, "EPHEMERIS_TYPE": 0, "CLASSIFICATION_TYPE": "U", "NORAD_CAT_ID": 66374, "ELEMENT_SET_NO": 999, "REV_AT_EPOCH": 438, "BSTAR": 0.0017954527, "MEAN_MOTION_DOT": 0.00272652, "MEAN_MOTION_DDOT": 0}, "tle": {"line1": "1 66374U 25254AC  25338.48973787  .00272652  00000+0  17955-2 0  9990", "line2": "2 66374  53.1571 315.8123 0000930  87.3429 272.7697 15.74328879  4387"}}, "geometry": {"type": "Point", "coordinates": [126.439223854289, 9.66286116390266]}}, {"type": "Feature", "properties": {"norad_id": 66375, "name": "STARLINK-35826", "group": "last-30-days", "lat": 8.165108107851015, "lon": 127.59423233151361, "alt_km": 344.8502863587619, "timestamp": "2025-12-04T21:36:14.650925+00:00", "meta": {"OBJECT_NAME": "STARLINK-35826", "OBJECT_ID": "2025-254AD", "EPOCH": "2025-12-04T11:44:44.246400", "MEAN_MOTION": 15.74318171, "ECCENTRICITY": 0.00013151, "INCLINATION": 53.1566, "RA_OF_ASC_NODE": 315.8103, "ARG_OF_PERICENTER": 162.131, "MEAN_ANOMALY": 197.9756, "EPHEMERIS_TYPE": 0, "CLASSIFICATION_TYPE": "U", "NORAD_CAT_ID": 66375, "ELEMENT_SET_NO": 999, "REV_AT_EPOCH": 438, "BSTAR": 0.001845874, "MEAN_MOTION_DOT": 0.00280457, "MEAN_MOTION_DDOT": 0}, "tle": {"line1": "1 66375U 25254AD  25338.48940100  .00280457  00000+0  18459-2 0  9996", "line2": "2 66375  53.1566 315.8103 0001315 162.1310 197.9756 15.74318171  4387"}}, "geometry": {"type": "Point", "coordinates": [127.59423233151361, 8.165108107851015]}}]}